NORAD_CAT_ID,OBJECT_NAME,OBJECT_TYPE,EPOCH,MEAN_MOTION,ECCENTRICITY,INCLINATION,RA_OF_ASC_NODE,ARG_OF_PERICENTER,MEAN_ANOMALY,BSTAR,MEAN_MOTION_DOT,MEAN_MOTION_DDOT,TLE_LINE0,TLE_LINE1,TLE_LINE2,SEMIMAJOR_AXIS,PERIOD,APOGEE,PERIGEE,DECAYED
52297.0,STARLINK-3758,PAYLOAD,2023-08-06 04:23:05,15.08842362,0.0001265,53.2182,28.1538,79.7354,280.3781,4.5928e-05,4.43e-06,0.0,0 STARLINK-3758,1 52297U 22041AN  23218.18270068  .00000443  00000-0  45928-4 0  9995,2 52297  53.2182  28.1538 0001265  79.7354 280.3781 15.08842362 72832,6917.873,95.437,540.613,538.863,0.0
52297.0,STARLINK-3758,PAYLOAD,2023-08-06 17:06:11,15.08818275,9.53e-05,53.2175,25.7742,85.9565,274.1536,-0.00037202,-6.2e-05,0.0,0 STARLINK-3758,1 52297U 22041AN  23218.71263270 -.00006200  00000-0 -37202-3 0  9995,2 52297  53.2175  25.7742 0000953  85.9565 274.1536 15.08818275 72914,6917.947,95.439,540.471,539.153,0.0
52297.0,STARLINK-3758,PAYLOAD,2023-08-07 10:35:26,15.08824389,9.03e-05,53.2175,22.5028,101.8135,258.2959,0.00010959,1.456e-05,0.0,0 STARLINK-3758,1 52297U 22041AN  23219.44127933  .00001456  00000-0  10959-3 0  9997,2 52297  53.2175  22.5028 0000903 101.8135 258.2959 15.08824389 73020,6917.928,95.439,540.418,539.168,0.0
52297.0,STARLINK-3758,PAYLOAD,2023-08-07 23:18:31,15.08850544,8.6e-05,53.2171,20.1261,97.0955,263.0135,0.0011617,0.00018254,0.0,0 STARLINK-3758,1 52297U 22041AN  23219.97120095  .00018254  00000-0  11617-2 0  9992,2 52297  53.2171  20.1261 0000860  97.0955 263.0135 15.08850544 73108,6917.848,95.437,540.308,539.118,0.0
52297.0,STARLINK-3758,PAYLOAD,2023-08-08 16:47:45,15.08869202,8.23e-05,53.2168,16.8548,89.8619,270.2468,0.0010858,0.00017049,0.0,0 STARLINK-3758,1 52297U 22041AN  23220.69983356  .00017049  00000-0  10858-2 0  9997,2 52297  53.2168  16.8548 0000823  89.8619 270.2468 15.08869202 73211,6917.791,95.436,540.225,539.087,0.0
52297.0,STARLINK-3758,PAYLOAD,2023-08-09 10:16:59,15.08853278,8.55e-05,53.2162,13.5827,110.4316,249.6768,0.00017832,2.552e-05,0.0,0 STARLINK-3758,1 52297U 22041AN  23221.42846838  .00002552  00000-0  17832-3 0  9995,2 52297  53.2162  13.5827 0000855 110.4316 249.6768 15.08853278 73320,6917.84,95.437,540.296,539.113,0.0
52297.0,STARLINK-3758,PAYLOAD,2023-08-10 10:07:46,15.08843311,9.39e-05,53.2167,9.1223,97.6177,262.4922,0.00063601,9.85e-05,0.0,0 STARLINK-3758,1 52297U 22041AN  23222.42206943  .00009850  00000-0  63601-3 0  9996,2 52297  53.2167   9.1223 0000939  97.6177 262.4922 15.08843311 73478,6917.87,95.437,540.385,539.086,0.0
52297.0,STARLINK-3758,PAYLOAD,2023-08-11 16:20:06,15.08851243,9.24e-05,53.218,3.4749,97.1793,262.9304,0.0003446,5.202e-05,0.0,0 STARLINK-3758,1 52297U 22041AN  23223.68062713  .00005202  00000-0  34460-3 0  9998,2 52297  53.2180   3.4749 0000924  97.1793 262.9304 15.08851243 73669,6917.846,95.437,540.35,539.072,0.0
52297.0,STARLINK-3758,PAYLOAD,2023-08-12 01:52:25,15.08837764,0.0001155,53.2177,1.6895,80.8768,279.2354,0.00011448,1.534e-05,0.0,0 STARLINK-3758,1 52297U 22041AN  23224.07807041  .00001534  00000-0  11448-3 0  9998,2 52297  53.2177   1.6895 0001155  80.8768 279.2354 15.08837764 73720,6917.887,95.438,540.551,538.953,0.0
52297.0,STARLINK-3758,PAYLOAD,2023-08-13 08:04:45,15.08836817,8.75e-05,53.2175,356.0413,85.5694,274.5398,0.00030355,4.546e-05,0.0,0 STARLINK-3758,1 52297U 22041AN  23225.33663337  .00004546  00000-0  30355-3 0  9990,2 52297  53.2175 356.0413 0000875  85.5694 274.5398 15.08836817 73914,6917.89,95.438,540.36,539.15,0.0
52297.0,STARLINK-3758,PAYLOAD,2023-08-14 01:33:59,15.08836341,8.45e-05,53.2171,352.7672,80.0418,280.0669,0.00010566,1.394e-05,0.0,0 STARLINK-3758,1 52297U 22041AN  23226.06527467  .00001394  00000-0  10566-3 0  9994,2 52297  53.2171 352.7672 0000845  80.0418 280.0669 15.08836341 74029,6917.892,95.438,540.341,539.172,0.0
52297.0,STARLINK-3758,PAYLOAD,2023-08-15 01:24:45,15.08839703,1.37e-05,53.2178,348.3087,242.4008,117.6971,-0.00010149,-1.902e-05,0.0,0 STARLINK-3758,1 52297U 22041AN  23227.05886514 -.00001902  00000-0 -10149-3 0  9999,2 52297  53.2178 348.3087 0000137 242.4008 117.6971 15.08839703 74172,6917.881,95.438,539.841,539.652,0.0
52297.0,STARLINK-3758,PAYLOAD,2023-08-16 01:15:33,15.08853767,1.48e-05,53.2175,343.8471,88.4226,271.6783,0.00080497,0.00012551,0.0,0 STARLINK-3758,1 52297U 22041AN  23228.05246645  .00012551  00000-0  80497-3 0  9998,2 52297  53.2175 343.8471 0000148  88.4226 271.6783 15.08853767 74323,6917.838,95.437,539.806,539.601,0.0
52297.0,STARLINK-3758,PAYLOAD,2023-08-16 07:37:06,15.08857687,0.0002115,53.2129,342.6586,82.5662,277.557,0.00073416,0.00011421,0.0,0 STARLINK-3758,1 52297U 22041AN  23228.31743234  .00011421  00000-0  73416-3 0  9991,2 52297  53.2129 342.6586 0002115  82.5662 277.5570 15.08857687 74369,6917.826,95.436,541.154,538.228,0.0
52297.0,STARLINK-3758,PAYLOAD,2023-08-16 12:23:15,15.08846483,0.0001577,53.2165,341.7669,81.1244,278.9926,0.0002776,4.134e-05,0.0,0 STARLINK-3758,1 52297U 22041AN  23228.51615161  .00004134  00000-0  27760-3 0  9994,2 52297  53.2165 341.7669 0001577  81.1244 278.9926 15.08846483 74398,6917.861,95.437,540.817,538.635,0.0
52297.0,STARLINK-3758,PAYLOAD,2023-08-17 10:38:39,15.08842451,0.0001043,53.2176,337.6044,89.3168,270.7944,0.00012106,1.64e-05,0.0,0 STARLINK-3758,1 52297U 22041AN  23229.44351101  .00001640  00000-0  12106-3 0  9995,2 52297  53.2176 337.6044 0001043  89.3168 270.7944 15.08842451 74531,6917.873,95.437,540.459,539.016,0.0
52297.0,STARLINK-3758,PAYLOAD,2023-08-18 10:29:27,15.08827012,9.79e-05,53.2173,333.1433,102.6699,257.4402,0.00030776,4.612e-05,0.0,0 STARLINK-3758,1 52297U 22041AN  23230.43712111  .00004612  00000-0  30776-3 0  9993,2 52297  53.2173 333.1433 0000979 102.6699 257.4402 15.08827012 74689,6917.92,95.438,540.462,539.108,0.0
52297.0,STARLINK-3758,PAYLOAD,2023-08-18 16:50:59,15.08839575,0.0001057,53.2177,331.9535,102.8995,257.2115,3.2872e-05,2.35e-06,0.0,0 STARLINK-3758,1 52297U 22041AN  23230.70207389  .00000235  00000-0  32872-4 0  9996,2 52297  53.2177 331.9535 0001057 102.8995 257.2115 15.08839575 74722,6917.882,95.438,540.478,539.015,0.0
52297.0,STARLINK-3758,PAYLOAD,2023-08-20 11:46:24,15.08831966,0.0001028,53.2189,323.9269,97.7452,262.3657,7.2263e-05,8.62e-06,0.0,0 STARLINK-3758,1 52297U 22041AN  23232.49056294  .00000862  00000-0  72263-4 0  9995,2 52297  53.2189 323.9269 0001028  97.7452 262.3657 15.08831966 74991,6917.905,95.438,540.481,539.059,0.0
52297.0,STARLINK-3758,PAYLOAD,2023-08-21 11:37:11,15.08842619,0.0001031,53.2189,319.4661,90.8941,269.2169,9.4259e-05,1.213e-05,0.0,0 STARLINK-3758,1 52297U 22041AN  23233.48415820  .00001213  00000-0  94259-4 0  9999,2 52297  53.2189 319.4661 0001031  90.8941 269.2169 15.08842619 75147,6917.872,95.437,540.451,539.024,0.0
52297.0,STARLINK-3758,PAYLOAD,2023-08-23 12:54:08,15.08847875,0.0001293,53.2179,310.2475,72.0719,288.0414,7.2924e-05,8.73e-06,0.0,0 STARLINK-3758,1 52297U 22041AN  23235.53759768  .00000873  00000-0  72924-4 0  9995,2 52297  53.2179 310.2475 0001293  72.0719 288.0414 15.08847875 75458,6917.856,95.437,540.616,538.827,0.0
52297.0,STARLINK-3758,PAYLOAD,2023-08-24 15:55:41,15.08845279,0.0001222,53.2176,305.1925,88.328,271.7852,0.0001056,1.393e-05,0.0,0 STARLINK-3758,1 52297U 22041AN  23236.66367708  .00001393  00000-0  10560-3 0  9994,2 52297  53.2176 305.1925 0001222  88.3280 271.7852 15.08845279 74408,6917.864,95.437,540.575,538.884,0.0
52297.0,STARLINK-3758,PAYLOAD,2023-08-25 11:00:19,15.08840745,0.0001366,53.2169,301.6252,80.2435,279.8712,2.6878e-05,1.4e-06,0.0,0 STARLINK-3758,1 52297U 22041AN  23237.45856214  .00000140  00000-0  26878-4 0  9996,2 52297  53.2169 301.6252 0001366  80.2435 279.8712 15.08840745 75741,6917.878,95.438,540.688,538.798,0.0
52297.0,STARLINK-3758,PAYLOAD,2023-08-26 14:01:53,15.08839054,0.0001178,53.2173,296.5678,104.3914,255.7209,1.7589e-05,-8e-08,0.0,0 STARLINK-3758,1 52297U 22041AN  23238.58464365 -.00000008  00000-0  17589-4 0  9996,2 52297  53.2173 296.5678 0001178 104.3914 255.7209 15.08839054 74699,6917.883,95.438,540.563,538.933,0.0
52297.0,STARLINK-3758,PAYLOAD,2023-08-27 09:06:30,15.08841038,0.0001477,53.2179,293.0001,104.9688,255.1467,6.7759e-05,7.91e-06,0.0,0 STARLINK-3758,1 52297U 22041AN  23239.37952260  .00000791  00000-0  67759-4 0  9992,2 52297  53.2179 293.0001 0001477 104.9688 255.1467 15.08841038 74812,6917.877,95.437,540.764,538.72,0.0
52297.0,STARLINK-3758,PAYLOAD,2023-08-27 10:41:53,15.08841862,0.0001472,53.2178,292.7025,105.2898,254.8257,7.224e-05,8.62e-06,0.0,0 STARLINK-3758,1 52297U 22041AN  23239.44576179  .00000862  00000-0  72240-4 0  9991,2 52297  53.2178 292.7025 0001472 105.2898 254.8257 15.08841862 74824,6917.875,95.437,540.758,538.721,0.0
52297.0,STARLINK-3758,PAYLOAD,2023-08-28 02:35:45,15.08836829,0.0001461,53.2177,289.7292,104.7024,255.4131,5.4994e-05,5.87e-06,0.0,0 STARLINK-3758,1 52297U 22041AN  23240.10816631  .00000587  00000-0  54994-4 0  9996,2 52297  53.2177 289.7292 0001461 104.7024 255.4131 15.08836829 76140,6917.89,95.438,540.766,538.744,0.0
52297.0,STARLINK-3758,PAYLOAD,2023-08-28 20:05:00,15.08837056,0.0001432,53.2172,286.4583,95.9186,264.1969,3.1148e-05,2.08e-06,0.0,0 STARLINK-3758,1 52297U 22041AN  23240.83680891  .00000208  00000-0  31148-4 0  9999,2 52297  53.2172 286.4583 0001432  95.9186 264.1969 15.08837056 75036,6917.889,95.438,540.745,538.764,0.0
52297.0,STARLINK-3758,PAYLOAD,2023-08-29 08:48:05,15.08841499,0.0001446,53.217,284.0792,95.5725,264.5432,3.1054e-05,2.06e-06,0.0,0 STARLINK-3758,1 52297U 22041AN  23241.36672678  .00000206  00000-0  31054-4 0  9996,2 52297  53.2170 284.0792 0001446  95.5725 264.5432 15.08841499 76339,6917.876,95.437,540.741,538.74,0.0
52297.0,STARLINK-3758,PAYLOAD,2023-08-29 10:23:28,15.08842432,0.0001437,53.2169,283.7818,94.9426,265.173,3.7608e-05,3.11e-06,0.0,0 STARLINK-3758,1 52297U 22041AN  23241.43296601  .00000311  00000-0  37608-4 0  9990,2 52297  53.2169 283.7818 0001437  94.9426 265.1730 15.08842432 75125,6917.873,95.437,540.732,538.744,0.0
